[{"OBJECT_NAME":"ONEWEB-0356","OBJECT_ID":"2021-090E","EPOCH":"2025-09-12T15:40:45.265152","MEAN_MOTION":13.2077031,"ECCENTRICITY":0.0002545,"INCLINATION":87.9271,"RA_OF_ASC_NODE":329.7672,"ARG_OF_PERICENTER":82.9017,"MEAN_ANOMALY":277.2406,"EPHEMERIS_TYPE":0,"CLASSIFICATION_TYPE":"U","NORAD_CAT_ID":49283,"ELEMENT_SET_NO":999,"REV_AT_EPOCH":19319,"BSTAR":-0.00017895455,"MEAN_MOTION_DOT":-6.0e-7,"MEAN_MOTION_DDOT":0},{"OBJECT_NAME":"ONEWEB-0358","OBJECT_ID":"2021-090F","EPOCH":"2025-09-12T21:51:07.312320","MEAN_MOTION":13.20798698,"ECCENTRICITY":0.00022317,"INCLINATION":87.9279,"RA_OF_ASC_NODE":329.7093,"ARG_OF_PERICENTER":97.8444,"MEAN_ANOMALY":262.2943,"EPHEMERIS_TYPE":0,"CLASSIFICATION_TYPE":"U","NORAD_CAT_ID":49284,"ELEMENT_SET_NO":999,"REV_AT_EPOCH":19395,"BSTAR":0.0060650807,"MEAN_MOTION_DOT":2.481e-5,"MEAN_MOTION_DDOT":0},{"OBJECT_NAME":"ONEWEB-0359","OBJECT_ID":"2021-090G","EPOCH":"2025-09-13T05:03:00.413280","MEAN_MOTION":13.20769915,"ECCENTRICITY":0.00022299,"INCLINATION":87.9271,"RA_OF_ASC_NODE":329.657,"ARG_OF_PERICENTER":105.13,"MEAN_ANOMALY":255.008,"EPHEMERIS_TYPE":0,"CLASSIFICATION_TYPE":"U","NORAD_CAT_ID":49285,"ELEMENT_SET_NO":999,"REV_AT_EPOCH":19397,"BSTAR":9.9330532e-5,"MEAN_MOTION_DOT":5.3e-7,"MEAN_MOTION_DDOT":0},{"OBJECT_NAME":"ONEWEB-0360","OBJECT_ID":"2021-090H","EPOCH":"2025-09-13T04:49:23.186784","MEAN_MOTION":13.20773057,"ECCENTRICITY":0.00020182,"INCLINATION":87.9271,"RA_OF_ASC_NODE":329.6678,"ARG_OF_PERICENTER":103.3456,"MEAN_ANOMALY":256.7903,"EPHEMERIS_TYPE":0,"CLASSIFICATION_TYPE":"U","NORAD_CAT_ID":49286,"ELEMENT_SET_NO":999,"REV_AT_EPOCH":19328,"BSTAR":7.4277009e-5,"MEAN_MOTION_DOT":4.3e-7,"MEAN_MOTION_DDOT":0},{"OBJECT_NAME":"ONEWEB-0361","OBJECT_ID":"2021-090J","EPOCH":"2025-09-13T04:22:06.067488","MEAN_MOTION":13.20770053,"ECCENTRICITY":0.00020365,"INCLINATION":87.9276,"RA_OF_ASC_NODE":329.6675,"ARG_OF_PERICENTER":94.9814,"MEAN_ANOMALY":265.1552,"EPHEMERIS_TYPE":0,"CLASSIFICATION_TYPE":"U","NORAD_CAT_ID":49287,"ELEMENT_SET_NO":999,"REV_AT_EPOCH":19373,"BSTAR":0.0001386554,"MEAN_MOTION_DOT":6.9e-7,"MEAN_MOTION_DDOT":0},{"OBJECT_NAME":"ONEWEB-0362","OBJECT_ID":"2021-090K","EPOCH":"2025-09-13T05:14:37.714848","MEAN_MOTION":13.19725329,"ECCENTRICITY":0.00016864,"INCLINATION":87.9285,"RA_OF_ASC_NODE":0.0646,"ARG_OF_PERICENTER":107.5952,"MEAN_ANOMALY":252.5365,"EPHEMERIS_TYPE":0,"CLASSIFICATION_TYPE":"U","NORAD_CAT_ID":49288,"ELEMENT_SET_NO":999,"REV_AT_EPOCH":19038,"BSTAR":0.0002518272,"MEAN_MOTION_DOT":1.14e-6,"MEAN_MOTION_DDOT":0},{"OBJECT_NAME":"ONEWEB-0363","OBJECT_ID":"2021-090L","EPOCH":"2025-09-12T16:01:11.872128","MEAN_MOTION":13.20769726,"ECCENTRICITY":0.00021896,"INCLINATION":87.9277,"RA_OF_ASC_NODE":329.7652,"ARG_OF_PERICENTER":92.9061,"MEAN_ANOMALY":267.2323,"EPHEMERIS_TYPE":0,"CLASSIFICATION_TYPE":"U","NORAD_CAT_ID":49289,"ELEMENT_SET_NO":999,"REV_AT_EPOCH":19367,"BSTAR":-0.00022872869,"MEAN_MOTION_DOT":-8.0e-7,"MEAN_MOTION_DDOT":0},{"OBJECT_NAME":"ONEWEB-0364","OBJECT_ID":"2021-090M","EPOCH":"2025-09-12T22:23:01.437792","MEAN_MOTION":13.20773045,"ECCENTRICITY":0.00020033,"INCLINATION":87.927,"RA_OF_ASC_NODE":329.7392,"ARG_OF_PERICENTER":95.3508,"MEAN_ANOMALY":264.7854,"EPHEMERIS_TYPE":0,"CLASSIFICATION_TYPE":"U","NORAD_CAT_ID":49290,"ELEMENT_SET_NO":999,"REV_AT_EPOCH":19484,"BSTAR":7.5228477e-5,"MEAN_MOTION_DOT":4.4e-7,"MEAN_MOTION_DDOT":0},{"OBJECT_NAME":"ONEWEB-0365","OBJECT_ID":"2021-090N","EPOCH":"2025-09-13T05:28:15.358656","MEAN_MOTION":13.19725428,"ECCENTRICITY":0.0001686,"INCLINATION":87.9285,"RA_OF_ASC_NODE":0.0182,"ARG_OF_PERICENTER":99.8241,"MEAN_ANOMALY":260.3082,"EPHEMERIS_TYPE":0,"CLASSIFICATION_TYPE":"U","NORAD_CAT_ID":49291,"ELEMENT_SET_NO":999,"REV_AT_EPOCH":18989,"BSTAR":0.00030973283,"MEAN_MOTION_DOT":1.37e-6,"MEAN_MOTION_DDOT":0},{"OBJECT_NAME":"ONEWEB-0366","OBJECT_ID":"2021-090P","EPOCH":"2025-09-13T05:09:28.927296","MEAN_MOTION":13.14503227,"ECCENTRICITY":0.00019154,"INCLINATION":87.9086,"RA_OF_ASC_NODE":344.8674,"ARG_OF_PERICENTER":99.8804,"MEAN_ANOMALY":260.2542,"EPHEMERIS_TYPE":0,"CLASSIFICATION_TYPE":"U","NORAD_CAT_ID":49292,"ELEMENT_SET_NO":999,"REV_AT_EPOCH":19117,"BSTAR":-0.00016866964,"MEAN_MOTION_DOT":-5.0e-7,"MEAN_MOTION_DDOT":0},{"OBJECT_NAME":"ONEWEB-0367","OBJECT_ID":"2021-090Q","EPOCH":"2025-09-12T23:15:16.638048","MEAN_MOTION":13.20774614,"ECCENTRICITY":0.00017595,"INCLINATION":87.9278,"RA_OF_ASC_NODE":329.7011,"ARG_OF_PERICENTER":104.2679,"MEAN_ANOMALY":255.865,"EPHEMERIS_TYPE":0,"CLASSIFICATION_TYPE":"U","NORAD_CAT_ID":49293,"ELEMENT_SET_NO":999,"REV_AT_EPOCH":19323,"BSTAR":0.00026245537,"MEAN_MOTION_DOT":1.2e-6,"MEAN_MOTION_DDOT":0},{"OBJECT_NAME":"ONEWEB-0368","OBJECT_ID":"2021-090R","EPOCH":"2025-09-12T15:20:17.758752","MEAN_MOTION":13.20771501,"ECCENTRICITY":0.00017929,"INCLINATION":87.9271,"RA_OF_ASC_NODE":329.8024,"ARG_OF_PERICENTER":73.0666,"MEAN_ANOMALY":287.0664,"EPHEMERIS_TYPE":0,"CLASSIFICATION_TYPE":"U","NORAD_CAT_ID":49294,"ELEMENT_SET_NO":999,"REV_AT_EPOCH":19434,"BSTAR":-4.9319044e-5,"MEAN_MOTION_DOT":-7.0e-8,"MEAN_MOTION_DDOT":0},{"OBJECT_NAME":"ONEWEB-0369","OBJECT_ID":"2021-090S","EPOCH":"2025-09-13T05:21:26.592480","MEAN_MOTION":13.19725518,"ECCENTRICITY":0.00017789,"INCLINATION":87.9289,"RA_OF_ASC_NODE":0.0502,"ARG_OF_PERICENTER":99.5922,"MEAN_ANOMALY":260.5412,"EPHEMERIS_TYPE":0,"CLASSIFICATION_TYPE":"U","NORAD_CAT_ID":49295,"ELEMENT_SET_NO":999,"REV_AT_EPOCH":18988,"BSTAR":0.00010478609,"MEAN_MOTION_DOT":5.5e-7,"MEAN_MOTION_DDOT":0},{"OBJECT_NAME":"ONEWEB-0370","OBJECT_ID":"2021-090T","EPOCH":"2025-09-13T04:56:11.237568","MEAN_MOTION":13.20769839,"ECCENTRICITY":0.00020095,"INCLINATION":87.928,"RA_OF_ASC_NODE":329.6621,"ARG_OF_PERICENTER":108.7853,"MEAN_ANOMALY":251.3499,"EPHEMERIS_TYPE":0,"CLASSIFICATION_TYPE":"U","NORAD_CAT_ID":49296,"ELEMENT_SET_NO":999,"REV_AT_EPOCH":19330,"BSTAR":4.013619e-5,"MEAN_MOTION_DOT":2.9e-7,"MEAN_MOTION_DDOT":0},{"OBJECT_NAME":"ONEWEB-0371","OBJECT_ID":"2021-090U","EPOCH":"2025-09-13T07:21:58.969728","MEAN_MOTION":13.19725347,"ECCENTRICITY":0.00017415,"INCLINATION":87.9278,"RA_OF_ASC_NODE":0.0228,"ARG_OF_PERICENTER":102.6639,"MEAN_ANOMALY":257.4689,"EPHEMERIS_TYPE":0,"CLASSIFICATION_TYPE":"U","NORAD_CAT_ID":49297,"ELEMENT_SET_NO":999,"REV_AT_EPOCH":18993,"BSTAR":0.00031136735,"MEAN_MOTION_DOT":1.38e-6,"MEAN_MOTION_DDOT":0},{"OBJECT_NAME":"ONEWEB-0372","OBJECT_ID":"2021-090V","EPOCH":"2025-09-12T10:29:12.522336","MEAN_MOTION":13.20771467,"ECCENTRICITY":0.00018082,"INCLINATION":87.9271,"RA_OF_ASC_NODE":329.8179,"ARG_OF_PERICENTER":97.4607,"MEAN_ANOMALY":262.6731,"EPHEMERIS_TYPE":0,"CLASSIFICATION_TYPE":"U","NORAD_CAT_ID":49298,"ELEMENT_SET_NO":999,"REV_AT_EPOCH":19317,"BSTAR":-7.6592897e-5,"MEAN_MOTION_DOT":-1.8e-7,"MEAN_MOTION_DDOT":0},{"OBJECT_NAME":"ONEWEB-0373","OBJECT_ID":"2021-090W","EPOCH":"2025-09-12T22:02:34.181952","MEAN_MOTION":13.20770966,"ECCENTRICITY":0.0002009,"INCLINATION":87.9271,"RA_OF_ASC_NODE":329.7358,"ARG_OF_PERICENTER":99.1482,"MEAN_ANOMALY":260.9878,"EPHEMERIS_TYPE":0,"CLASSIFICATION_TYPE":"U","NORAD_CAT_ID":49299,"ELEMENT_SET_NO":999,"REV_AT_EPOCH":19442,"BSTAR":0.00013677784,"MEAN_MOTION_DOT":6.9e-7,"MEAN_MOTION_DDOT":0},{"OBJECT_NAME":"ONEWEB-0374","OBJECT_ID":"2021-090X","EPOCH":"2025-09-12T23:22:22.887264","MEAN_MOTION":13.1450134,"ECCENTRICITY":0.00020981,"INCLINATION":87.9083,"RA_OF_ASC_NODE":344.8918,"ARG_OF_PERICENTER":85.6442,"MEAN_ANOMALY":274.4927,"EPHEMERIS_TYPE":0,"CLASSIFICATION_TYPE":"U","NORAD_CAT_ID":49300,"ELEMENT_SET_NO":999,"REV_AT_EPOCH":19114,"BSTAR":-0.00076021075,"MEAN_MOTION_DOT":-2.69e-6,"MEAN_MOTION_DDOT":0},{"OBJECT_NAME":"ONEWEB-0375","OBJECT_ID":"2021-090Y","EPOCH":"2025-09-13T05:00:44.595072","MEAN_MOTION":13.20770418,"ECCENTRICITY":0.00024651,"INCLINATION":87.9276,"RA_OF_ASC_NODE":329.6577,"ARG_OF_PERICENTER":92.4826,"MEAN_ANOMALY":267.659,"EPHEMERIS_TYPE":0,"CLASSIFICATION_TYPE":"U","NORAD_CAT_ID":49301,"ELEMENT_SET_NO":999,"REV_AT_EPOCH":19396,"BSTAR":1.6260682e-5,"MEAN_MOTION_DOT":2.0e-7,"MEAN_MOTION_DDOT":0},{"OBJECT_NAME":"ONEWEB-0376","OBJECT_ID":"2021-090Z","EPOCH":"2025-09-13T05:30:30.942720","MEAN_MOTION":13.19727291,"ECCENTRICITY":0.00015665,"INCLINATION":87.9285,"RA_OF_ASC_NODE":0.0201,"ARG_OF_PERICENTER":99.966,"MEAN_ANOMALY":260.1649,"EPHEMERIS_TYPE":0,"CLASSIFICATION_TYPE":"U","NORAD_CAT_ID":49302,"ELEMENT_SET_NO":999,"REV_AT_EPOCH":18992,"BSTAR":6.7753901e-5,"MEAN_MOTION_DOT":4.0e-7,"MEAN_MOTION_DDOT":0},{"OBJECT_NAME":"ONEWEB-0377","OBJECT_ID":"2021-090AA","EPOCH":"2025-09-12T23:13:14.551392","MEAN_MOTION":13.20771945,"ECCENTRICITY":0.00021069,"INCLINATION":87.928,"RA_OF_ASC_NODE":329.7001,"ARG_OF_PERICENTER":103.8381,"MEAN_ANOMALY":256.2987,"EPHEMERIS_TYPE":0,"CLASSIFICATION_TYPE":"U","NORAD_CAT_ID":49303,"ELEMENT_SET_NO":999,"REV_AT_EPOCH":19392,"BSTAR":-0.00017709681,"MEAN_MOTION_DOT":-5.9e-7,"MEAN_MOTION_DDOT":0},{"OBJECT_NAME":"ONEWEB-0378","OBJECT_ID":"2021-090AB","EPOCH":"2025-09-12T21:55:53.177952","MEAN_MOTION":13.20774744,"ECCENTRICITY":0.00020128,"INCLINATION":87.9288,"RA_OF_ASC_NODE":329.7234,"ARG_OF_PERICENTER":96.0575,"MEAN_ANOMALY":264.0787,"EPHEMERIS_TYPE":0,"CLASSIFICATION_TYPE":"U","NORAD_CAT_ID":49304,"ELEMENT_SET_NO":999,"REV_AT_EPOCH":19318,"BSTAR":4.1424321e-5,"MEAN_MOTION_DOT":3.0e-7,"MEAN_MOTION_DDOT":0},{"OBJECT_NAME":"ONEWEB-0379","OBJECT_ID":"2021-090AC","EPOCH":"2025-09-13T04:44:21.214464","MEAN_MOTION":13.14504055,"ECCENTRICITY":0.00017862,"INCLINATION":87.9084,"RA_OF_ASC_NODE":344.8544,"ARG_OF_PERICENTER":96.31,"MEAN_ANOMALY":263.8233,"EPHEMERIS_TYPE":0,"CLASSIFICATION_TYPE":"U","NORAD_CAT_ID":49305,"ELEMENT_SET_NO":999,"REV_AT_EPOCH":19117,"BSTAR":-0.00029453749,"MEAN_MOTION_DOT":-9.6e-7,"MEAN_MOTION_DDOT":0}]
